[{"OBJECT_NAME":"EXACTVIEW-1 (ADS-1B)","OBJECT_ID":"2012-039C","EPOCH":"2026-03-09T21:13:50.174400","MEAN_MOTION":14.24951198,"ECCENTRICITY":0.00118702,"INCLINATION":98.9638,"RA_OF_ASC_NODE":184.1041,"ARG_OF_PERICENTER":97.8489,"MEAN_ANOMALY":262.4037,"EPHEMERIS_TYPE":0,"CLASSIFICATION_TYPE":"U","NORAD_CAT_ID":38709,"ELEMENT_SET_NO":999,"REV_AT_EPOCH":70856,"BSTAR":0.0001068616,"MEAN_MOTION_DOT":2.04e-6,"MEAN_MOTION_DDOT":0},{"OBJECT_NAME":"FENGYUN 1C DEB","OBJECT_ID":"1999-025CMG","EPOCH":"2026-03-06T13:50:31.222464","MEAN_MOTION":13.4274088,"ECCENTRICITY":0.04248385,"INCLINATION":97.8211,"RA_OF_ASC_NODE":2.4727,"ARG_OF_PERICENTER":51.5365,"MEAN_ANOMALY":312.3099,"EPHEMERIS_TYPE":0,"CLASSIFICATION_TYPE":"U","NORAD_CAT_ID":31931,"ELEMENT_SET_NO":999,"REV_AT_EPOCH":66347,"BSTAR":0.0015324338,"MEAN_MOTION_DOT":1.462e-5,"MEAN_MOTION_DDOT":0}]
